[
  {
    "CCSDS_OMM_VERS": "3.0",
    "COMMENT": "GENERATED VIA SPACE-TRACK.ORG API",
    "CREATION_DATE": "2026-02-19T17:59:09",
    "ORIGINATOR": "18 SPCS",
    "OBJECT_NAME": "COSMOS 2251 DEB",
    "OBJECT_ID": "1993-036AJU",
    "CENTER_NAME": "EARTH",
    "REF_FRAME": "TEME",
    "TIME_SYSTEM": "UTC",
    "MEAN_ELEMENT_THEORY": "SGP4",
    "EPOCH": "2026-02-19T15:17:37.977504",
    "MEAN_MOTION": "14.82949544",
    "ECCENTRICITY": "0.00028819",
    "INCLINATION": "74.0021",
    "RA_OF_ASC_NODE": "283.1116",
    "ARG_OF_PERICENTER": "15.3508",
    "MEAN_ANOMALY": "344.7756",
    "EPHEMERIS_TYPE": "0",
    "CLASSIFICATION_TYPE": "U",
    "NORAD_CAT_ID": "35290",
    "ELEMENT_SET_NO": "999",
    "REV_AT_EPOCH": "88978",
    "BSTAR": "0.00141546370000",
    "MEAN_MOTION_DOT": "0.00011477",
    "MEAN_MOTION_DDOT": "0.0000000000000",
    "SEMIMAJOR_AXIS": "6998.166",
    "PERIOD": "97.104",
    "APOAPSIS": "622.048",
    "PERIAPSIS": "618.014",
    "OBJECT_TYPE": "DEBRIS",
    "RCS_SIZE": "SMALL",
    "COUNTRY_CODE": "CIS",
    "LAUNCH_DATE": "1993-06-16",
    "SITE": "PKMTR",
    "DECAY_DATE": null,
    "FILE": "5039972",
    "GP_ID": "313166482",
    "TLE_LINE0": "0 COSMOS 2251 DEB",
    "TLE_LINE1": "1 35290U 93036AJU 26050.63724511  .00011477  00000-0  14155-2 0  9990",
    "TLE_LINE2": "2 35290  74.0021 283.1116 0002882  15.3508 344.7756 14.82949544889785"
  },
  {
    "CCSDS_OMM_VERS": "3.0",
    "COMMENT": "GENERATED VIA SPACE-TRACK.ORG API",
    "CREATION_DATE": "2026-02-19T17:59:09",
    "ORIGINATOR": "18 SPCS",
    "OBJECT_NAME": "THORAD AGENA D DEB",
    "OBJECT_ID": "1970-025CR",
    "CENTER_NAME": "EARTH",
    "REF_FRAME": "TEME",
    "TIME_SYSTEM": "UTC",
    "MEAN_ELEMENT_THEORY": "SGP4",
    "EPOCH": "2026-02-19T15:17:21.089760",
    "MEAN_MOTION": "13.54365964",
    "ECCENTRICITY": "0.00196696",
    "INCLINATION": "100.0242",
    "RA_OF_ASC_NODE": "118.4795",
    "ARG_OF_PERICENTER": "64.9920",
    "MEAN_ANOMALY": "100.9630",
    "EPHEMERIS_TYPE": "0",
    "CLASSIFICATION_TYPE": "U",
    "NORAD_CAT_ID": "4742",
    "ELEMENT_SET_NO": "999",
    "REV_AT_EPOCH": "75410",
    "BSTAR": "0.00021395716000",
    "MEAN_MOTION_DOT": "0.00000100",
    "MEAN_MOTION_DDOT": "0.0000000000000",
    "SEMIMAJOR_AXIS": "7434.375",
    "PERIOD": "106.323",
    "APOAPSIS": "1070.864",
    "PERIAPSIS": "1041.617",
    "OBJECT_TYPE": "DEBRIS",
    "RCS_SIZE": "SMALL",
    "COUNTRY_CODE": "US",
    "LAUNCH_DATE": "1970-04-08",
    "SITE": "AFWTR",
    "DECAY_DATE": null,
    "FILE": "5039972",
    "GP_ID": "313156534",
    "TLE_LINE0": "0 THORAD AGENA D DEB",
    "TLE_LINE1": "1 04742U 70025CR  26050.63704965  .00000100  00000-0  21396-3 0  9999",
    "TLE_LINE2": "2 04742 100.0242 118.4795 0019670  64.9920 100.9630 13.54365964754108"
  },
  {
    "CCSDS_OMM_VERS": "3.0",
    "COMMENT": "GENERATED VIA SPACE-TRACK.ORG API",
    "CREATION_DATE": "2026-02-19T17:59:09",
    "ORIGINATOR": "18 SPCS",
    "OBJECT_NAME": "CZ-6A DEB",
    "OBJECT_ID": "2024-140HS",
    "CENTER_NAME": "EARTH",
    "REF_FRAME": "TEME",
    "TIME_SYSTEM": "UTC",
    "MEAN_ELEMENT_THEORY": "SGP4",
    "EPOCH": "2026-02-19T15:17:12.865344",
    "MEAN_MOTION": "13.73984741",
    "ECCENTRICITY": "0.02597498",
    "INCLINATION": "88.9548",
    "RA_OF_ASC_NODE": "289.8567",
    "ARG_OF_PERICENTER": "327.4853",
    "MEAN_ANOMALY": "31.0534",
    "EPHEMERIS_TYPE": "0",
    "CLASSIFICATION_TYPE": "U",
    "NORAD_CAT_ID": "60839",
    "ELEMENT_SET_NO": "999",
    "REV_AT_EPOCH": "7627",
    "BSTAR": "0.00007096067800",
    "MEAN_MOTION_DOT": "0.00000096",
    "MEAN_MOTION_DDOT": "0.0000000000000",
    "SEMIMAJOR_AXIS": "7363.437",
    "PERIOD": "104.805",
    "APOAPSIS": "1176.567",
    "PERIAPSIS": "794.037",
    "OBJECT_TYPE": "DEBRIS",
    "RCS_SIZE": "SMALL",
    "COUNTRY_CODE": "PRC",
    "LAUNCH_DATE": "2024-08-06",
    "SITE": "TSC",
    "DECAY_DATE": null,
    "FILE": "5039972",
    "GP_ID": "313181311",
    "TLE_LINE0": "0 CZ-6A DEB",
    "TLE_LINE1": "1 60839U 24140HS  26050.63695446  .00000096  00000-0  70961-4 0  9995",
    "TLE_LINE2": "2 60839  88.9548 289.8567 0259750 327.4853  31.0534 13.73984741 76270"
  },
  {
    "CCSDS_OMM_VERS": "3.0",
    "COMMENT": "GENERATED VIA SPACE-TRACK.ORG API",
    "CREATION_DATE": "2026-02-19T17:59:09",
    "ORIGINATOR": "18 SPCS",
    "OBJECT_NAME": "CZ-6A DEB",
    "OBJECT_ID": "2024-140ACS",
    "CENTER_NAME": "EARTH",
    "REF_FRAME": "TEME",
    "TIME_SYSTEM": "UTC",
    "MEAN_ELEMENT_THEORY": "SGP4",
    "EPOCH": "2026-02-19T15:17:09.154464",
    "MEAN_MOTION": "14.29032612",
    "ECCENTRICITY": "0.00202021",
    "INCLINATION": "89.0436",
    "RA_OF_ASC_NODE": "290.1023",
    "ARG_OF_PERICENTER": "119.7652",
    "MEAN_ANOMALY": "240.5556",
    "EPHEMERIS_TYPE": "0",
    "CLASSIFICATION_TYPE": "U",
    "NORAD_CAT_ID": "61826",
    "ELEMENT_SET_NO": "999",
    "REV_AT_EPOCH": "7512",
    "BSTAR": "0.00052637199000",
    "MEAN_MOTION_DOT": "0.00001349",
    "MEAN_MOTION_DDOT": "0.0000000000000",
    "SEMIMAJOR_AXIS": "7173.103",
    "PERIOD": "100.767",
    "APOAPSIS": "809.459",
    "PERIAPSIS": "780.477",
    "OBJECT_TYPE": "DEBRIS",
    "RCS_SIZE": "SMALL",
    "COUNTRY_CODE": "PRC",
    "LAUNCH_DATE": "2024-08-06",
    "SITE": "TSC",
    "DECAY_DATE": null,
    "FILE": "5039972",
    "GP_ID": "313182712",
    "TLE_LINE0": "0 CZ-6A DEB",
    "TLE_LINE1": "1 61826U 24140ACS 26050.63691151  .00001349  00000-0  52637-3 0  9992",
    "TLE_LINE2": "2 61826  89.0436 290.1023 0020202 119.7652 240.5556 14.29032612 75121"
  },
  {
    "CCSDS_OMM_VERS": "3.0",
    "COMMENT": "GENERATED VIA SPACE-TRACK.ORG API",
    "CREATION_DATE": "2026-02-19T17:59:09",
    "ORIGINATOR": "18 SPCS",
    "OBJECT_NAME": "DELTA 1 DEB",
    "OBJECT_ID": "1973-086EK",
    "CENTER_NAME": "EARTH",
    "REF_FRAME": "TEME",
    "TIME_SYSTEM": "UTC",
    "MEAN_ELEMENT_THEORY": "SGP4",
    "EPOCH": "2026-02-19T15:16:45.059232",
    "MEAN_MOTION": "12.28319746",
    "ECCENTRICITY": "0.02225339",
    "INCLINATION": "102.5277",
    "RA_OF_ASC_NODE": "197.6194",
    "ARG_OF_PERICENTER": "323.7841",
    "MEAN_ANOMALY": "103.1720",
    "EPHEMERIS_TYPE": "0",
    "CLASSIFICATION_TYPE": "U",
    "NORAD_CAT_ID": "7173",
    "ELEMENT_SET_NO": "999",
    "REV_AT_EPOCH": "16347",
    "BSTAR": "0.00316215880000",
    "MEAN_MOTION_DOT": "0.00000348",
    "MEAN_MOTION_DDOT": "0.0000000000000",
    "SEMIMAJOR_AXIS": "7934.646",
    "PERIOD": "117.233",
    "APOAPSIS": "1733.084",
    "PERIAPSIS": "1379.938",
    "OBJECT_TYPE": "DEBRIS",
    "RCS_SIZE": "SMALL",
    "COUNTRY_CODE": "US",
    "LAUNCH_DATE": "1973-11-06",
    "SITE": "AFWTR",
    "DECAY_DATE": null,
    "FILE": "5039972",
    "GP_ID": "313156818",
    "TLE_LINE0": "0 DELTA 1 DEB",
    "TLE_LINE1": "1 07173U 73086EK  26050.63663263  .00000348  00000-0  31622-2 0  9991",
    "TLE_LINE2": "2 07173 102.5277 197.6194 0222534 323.7841 103.1720 12.28319746163475"
  },
  {
    "CCSDS_OMM_VERS": "3.0",
    "COMMENT": "GENERATED VIA SPACE-TRACK.ORG API",
    "CREATION_DATE": "2026-02-19T17:59:09",
    "ORIGINATOR": "18 SPCS",
    "OBJECT_NAME": "CZ-6A DEB",
    "OBJECT_ID": "2024-140LN",
    "CENTER_NAME": "EARTH",
    "REF_FRAME": "TEME",
    "TIME_SYSTEM": "UTC",
    "MEAN_ELEMENT_THEORY": "SGP4",
    "EPOCH": "2026-02-19T15:16:27.932160",
    "MEAN_MOTION": "14.52075325",
    "ECCENTRICITY": "0.01049910",
    "INCLINATION": "89.0184",
    "RA_OF_ASC_NODE": "285.9917",
    "ARG_OF_PERICENTER": "311.1716",
    "MEAN_ANOMALY": "48.0470",
    "EPHEMERIS_TYPE": "0",
    "CLASSIFICATION_TYPE": "U",
    "NORAD_CAT_ID": "60963",
    "ELEMENT_SET_NO": "999",
    "REV_AT_EPOCH": "8056",
    "BSTAR": "0.00016226810000",
    "MEAN_MOTION_DOT": "0.00000721",
    "MEAN_MOTION_DDOT": "0.0000000000000",
    "SEMIMAJOR_AXIS": "7097.015",
    "PERIOD": "99.168",
    "APOAPSIS": "793.393",
    "PERIAPSIS": "644.368",
    "OBJECT_TYPE": "DEBRIS",
    "RCS_SIZE": "SMALL",
    "COUNTRY_CODE": "PRC",
    "LAUNCH_DATE": "2024-08-06",
    "SITE": "TSC",
    "DECAY_DATE": null,
    "FILE": "5039972",
    "GP_ID": "313181363",
    "TLE_LINE0": "0 CZ-6A DEB",
    "TLE_LINE1": "1 60963U 24140LN  26050.63643440  .00000721  00000-0  16227-3 0  9999",
    "TLE_LINE2": "2 60963  89.0184 285.9917 0104991 311.1716  48.0470 14.52075325 80567"
  },
  {
    "CCSDS_OMM_VERS": "3.0",
    "COMMENT": "GENERATED VIA SPACE-TRACK.ORG API",
    "CREATION_DATE": "2026-02-19T17:59:09",
    "ORIGINATOR": "18 SPCS",
    "OBJECT_NAME": "THOR ABLESTAR DEB",
    "OBJECT_ID": "1965-048E",
    "CENTER_NAME": "EARTH",
    "REF_FRAME": "TEME",
    "TIME_SYSTEM": "UTC",
    "MEAN_ELEMENT_THEORY": "SGP4",
    "EPOCH": "2026-02-19T15:16:12.311904",
    "MEAN_MOTION": "13.63906704",
    "ECCENTRICITY": "0.00614611",
    "INCLINATION": "89.8772",
    "RA_OF_ASC_NODE": "288.9539",
    "ARG_OF_PERICENTER": "232.9640",
    "MEAN_ANOMALY": "154.9273",
    "EPHEMERIS_TYPE": "0",
    "CLASSIFICATION_TYPE": "U",
    "NORAD_CAT_ID": "2701",
    "ELEMENT_SET_NO": "999",
    "REV_AT_EPOCH": "527",
    "BSTAR": "0.00033427141000",
    "MEAN_MOTION_DOT": "0.00000279",
    "MEAN_MOTION_DDOT": "0.0000000000000",
    "SEMIMAJOR_AXIS": "7399.665",
    "PERIOD": "105.579",
    "APOAPSIS": "1067.009",
    "PERIAPSIS": "976.051",
    "OBJECT_TYPE": "DEBRIS",
    "RCS_SIZE": "SMALL",
    "COUNTRY_CODE": "US",
    "LAUNCH_DATE": "1965-06-24",
    "SITE": "AFWTR",
    "DECAY_DATE": null,
    "FILE": "5039972",
    "GP_ID": "313155820",
    "TLE_LINE0": "0 THOR ABLESTAR DEB",
    "TLE_LINE1": "1 02701U 65048E   26050.63625361  .00000279  00000-0  33427-3 0  9998",
    "TLE_LINE2": "2 02701  89.8772 288.9539 0061461 232.9640 154.9273 13.63906704  5275"
  }
]